SCS-01 D                
1 63985U 25100D   26068.75607686  .00032471  00000+0  10528-2 0  9990
2 63985  97.3730 145.4097 0006346 266.2302  93.8214 15.31902149 45621
STARLINK-35228          
1 65517U 25198AB  26068.82721041  .00020553  00000+0  70422-3 0  9998
2 65517  53.1587 270.1762 0001063  85.2428 274.8694 15.30196191 28645
